[{"OBJECT_NAME":"STARLINK-4339","OBJECT_ID":"2022-077M","EPOCH":"2026-03-09T23:16:39.638208","MEAN_MOTION":15.05648298,"ECCENTRICITY":0.00015574,"INCLINATION":97.6024,"RA_OF_ASC_NODE":251.5464,"ARG_OF_PERICENTER":84.1865,"MEAN_ANOMALY":275.9539,"EPHEMERIS_TYPE":0,"CLASSIFICATION_TYPE":"U","NORAD_CAT_ID":53054,"ELEMENT_SET_NO":999,"REV_AT_EPOCH":20102,"BSTAR":2.9849202e-5,"MEAN_MOTION_DOT":3.7e-6,"MEAN_MOTION_DDOT":0},{"OBJECT_NAME":"FENGYUN 1C DEB","OBJECT_ID":"1999-025RK","EPOCH":"2026-03-09T17:38:14.291232","MEAN_MOTION":14.95383795,"ECCENTRICITY":0.00371964,"INCLINATION":98.9196,"RA_OF_ASC_NODE":352.1506,"ARG_OF_PERICENTER":284.0168,"MEAN_ANOMALY":136.3268,"EPHEMERIS_TYPE":0,"CLASSIFICATION_TYPE":"U","NORAD_CAT_ID":30106,"ELEMENT_SET_NO":999,"REV_AT_EPOCH":99840,"BSTAR":0.0053227568,"MEAN_MOTION_DOT":0.0005999,"MEAN_MOTION_DDOT":0}]
